[{"OBJECT_NAME":"STARLINK-5630","OBJECT_ID":"2023-014R","EPOCH":"2026-03-09T23:13:47.634816","MEAN_MOTION":14.98328966,"ECCENTRICITY":0.00028581,"INCLINATION":69.9998,"RA_OF_ASC_NODE":63.8965,"ARG_OF_PERICENTER":267.2408,"MEAN_ANOMALY":92.8424,"EPHEMERIS_TYPE":0,"CLASSIFICATION_TYPE":"U","NORAD_CAT_ID":55406,"ELEMENT_SET_NO":999,"REV_AT_EPOCH":17209,"BSTAR":1.8623406e-5,"MEAN_MOTION_DOT":1.29e-6,"MEAN_MOTION_DDOT":0},{"OBJECT_NAME":"ATLAS 28E DEB","OBJECT_ID":"1990-031G","EPOCH":"2026-03-09T13:30:42.820704","MEAN_MOTION":15.01077751,"ECCENTRICITY":0.00267601,"INCLINATION":90.3468,"RA_OF_ASC_NODE":293.9289,"ARG_OF_PERICENTER":41.2715,"MEAN_ANOMALY":319.0536,"EPHEMERIS_TYPE":0,"CLASSIFICATION_TYPE":"U","NORAD_CAT_ID":20575,"ELEMENT_SET_NO":999,"REV_AT_EPOCH":38014,"BSTAR":0.00040945673,"MEAN_MOTION_DOT":5.29e-5,"MEAN_MOTION_DDOT":0}]
